{
  "near_earth_objects": [
    {
      "id": "3092142",
      "neo_reference_id": "3092142",
      "name": "(1995 UC2)",
      "designation": "1995 UC2",
      "nasa_jpl_url": "http://ssd.jpl.nasa.gov/sbdb.cgi?sstr=3092142",
      "absolute_magnitude_h": 21.4,
      "estimated_diameter": {
        "kilometers": {
          "estimated_diameter_min": 0.1394938229,
          "estimated_diameter_max": 0.3119176705
        },
        "meters": {
          "estimated_diameter_min": 139.4938229344,
          "estimated_diameter_max": 311.9176705226
        },
        "miles": {
          "estimated_diameter_min": 0.0866774163,
          "estimated_diameter_max": 0.1938165949
        },
        "feet": {
          "estimated_diameter_min": 457.6569140361,
          "estimated_diameter_max": 1023.3519701574
        }
      },
      "is_potentially_hazardous_asteroid": false,
      "close_approach_data": [],
      "orbital_data": {
        "orbit_id": "12",
        "orbit_determination_date": "2017-04-06 09:18:07",
        "first_observation_date": "1995-10-21",
        "last_observation_date": "1995-10-27",
        "data_arc_in_days": 6,
        "observations_used": 11,
        "orbit_uncertainty": "9",
        "minimum_orbit_intersection": ".404397",
        "jupiter_tisserand_invariant": "3.988",
        "epoch_osculation": "2450014.5",
        "eccentricity": ".3260279339378647",
        "semi_major_axis": "1.720100562527697",
        "inclination": "27.648437091567",
        "ascending_node_longitude": "33.24839113556171",
        "orbital_period": "824.0037415323961",
        "perihelion_distance": "1.159299729961433",
        "perihelion_argument": "272.677945470292",
        "aphelion_distance": "2.28090139509396",
        "perihelion_time": "2449902.777522706229",
        "mean_anomaly": "48.81056941678496",
        "mean_motion": ".436891220093867",
        "equinox": "J2000",
        "orbit_class": {
          "orbit_class_type": "AMO",
          "orbit_class_description": "Near-Earth asteroid orbits similar to that of 1221 Amor",
          "orbit_class_range": "1.017 AU < q (perihelion) < 1.3 AU"
        }
      },
      "is_sentry_object": false
    },
    {
      "id": "3092143",
      "neo_reference_id": "3092143",
      "name": "(1996 AP1)",
      "designation": "1996 AP1",
      "nasa_jpl_url": "http://ssd.jpl.nasa.gov/sbdb.cgi?sstr=3092143",
      "absolute_magnitude_h": 24.7,
      "estimated_diameter": {
        "kilometers": {
          "estimated_diameter_min": 0.0305179233,
          "estimated_diameter_max": 0.0682401509
        },
        "meters": {
          "estimated_diameter_min": 30.5179232594,
          "estimated_diameter_max": 68.2401509401
        },
        "miles": {
          "estimated_diameter_min": 0.0189629525,
          "estimated_diameter_max": 0.0424024508
        },
        "feet": {
          "estimated_diameter_min": 100.1244233463,
          "estimated_diameter_max": 223.8850168104
        }
      },
      "is_potentially_hazardous_asteroid": false,
      "close_approach_data": [
        {
          "close_approach_date": "1996-01-06",
          "close_approach_date_full": "1996-Jan-06 22:11",
          "epoch_date_close_approach": 820966260000,
          "relative_velocity": {
            "kilometers_per_second": "8.1634375827",
            "kilometers_per_hour": "29388.3752977862",
            "miles_per_hour": "18260.7935287828"
          },
          "miss_distance": {
            "astronomical": "0.0231743444",
            "lunar": "9.0148199716",
            "kilometers": "3466832.560886428",
            "miles": "2154189.8622235864"
          },
          "orbiting_body": "Earth"
        }
      ],
      "orbital_data": {
        "orbit_id": "12",
        "orbit_determination_date": "2017-04-06 09:18:06",
        "first_observation_date": "1996-01-14",
        "last_observation_date": "1996-01-24",
        "data_arc_in_days": 10,
        "observations_used": 13,
        "orbit_uncertainty": "8",
        "minimum_orbit_intersection": ".0231667",
        "jupiter_tisserand_invariant": "3.765",
        "epoch_osculation": "2450099.5",
        "eccentricity": ".4955199164428823",
        "semi_major_axis": "1.916266735910177",
        "inclination": "5.462479052438222",
        "ascending_node_longitude": "118.0231302904036",
        "orbital_period": "968.9076125949106",
        "perihelion_distance": ".9667184030496911",
        "perihelion_argument": "323.8357620427234",
        "aphelion_distance": "2.865815068770662",
        "perihelion_time": "2450070.066354054859",
        "mean_anomaly": "10.9361433458784",
        "mean_motion": ".3715524528038897",
        "equinox": "J2000",
        "orbit_class": {
          "orbit_class_type": "APO",
          "orbit_class_description": "Near-Earth asteroid orbits which cross the Earth’s orbit similar to that of 1862 Apollo",
          "orbit_class_range": "a (semi-major axis) > 1.0 AU; q (perihelion) < 1.017 AU"
        }
      },
      "is_sentry_object": false
    },
    {
      "id": "3008375",
      "neo_reference_id": "3008375",
      "name": "(1996 BT)",
      "designation": "1996 BT",
      "nasa_jpl_url": "http://ssd.jpl.nasa.gov/sbdb.cgi?sstr=3008375",
      "absolute_magnitude_h": 23.0,
      "estimated_diameter": {
        "kilometers": {
          "estimated_diameter_min": 0.0667659413,
          "estimated_diameter_max": 0.1492931834
        },
        "meters": {
          "estimated_diameter_min": 66.7659413495,
          "estimated_diameter_max": 149.2931834393
        },
        "miles": {
          "estimated_diameter_min": 0.0414864197,
          "estimated_diameter_max": 0.0927664547
        },
        "feet": {
          "estimated_diameter_min": 219.0483710172,
          "estimated_diameter_max": 489.807047955
        }
      },
      "is_potentially_hazardous_asteroid": false,
      "close_approach_data": [
        {
          "close_approach_date": "1996-01-29",
          "close_approach_date_full": "1996-Jan-29 12:56",
          "epoch_date_close_approach": 822920160000,
          "relative_velocity": {
            "kilometers_per_second": "27.4613549901",
            "kilometers_per_hour": "98860.8779642102",
            "miles_per_hour": "61428.3049772616"
          },
          "miss_distance": {
            "astronomical": "0.0913113753",
            "lunar": "35.5201249917",
            "kilometers": "13659987.251650611",
            "miles": "8487922.4879799918"
          },
          "orbiting_body": "Earth"
        }
      ],
      "orbital_data": {
        "orbit_id": "12",
        "orbit_determination_date": "2017-04-06 09:18:06",
        "first_observation_date": "1996-01-19",
        "last_observation_date": "1996-01-29",
        "data_arc_in_days": 10,
        "observations_used": 21,
        "orbit_uncertainty": "9",
        "minimum_orbit_intersection": ".0326632",
        "jupiter_tisserand_invariant": "4.849",
        "epoch_osculation": "2450105.5",
        "eccentricity": ".8322147274751157",
        "semi_major_axis": "1.202433889055899",
        "inclination": "11.99181147834666",
        "ascending_node_longitude": "297.1072938512531",
        "orbital_period": "481.6041699042312",
        "perihelion_distance": ".2017506977684005",
        "perihelion_argument": "327.8866413021353",
        "aphelion_distance": "2.203117080343397",
        "perihelion_time": "2450156.067286403417",
        "mean_anomaly": "322.2008607009153",
        "mean_motion": ".7475018334487996",
        "equinox": "J2000",
        "orbit_class": {
          "orbit_class_type": "APO",
          "orbit_class_description": "Near-Earth asteroid orbits which cross the Earth’s orbit similar to that of 1862 Apollo",
          "orbit_class_range": "a (semi-major axis) > 1.0 AU; q (perihelion) < 1.017 AU"
        }
      },
      "is_sentry_object": false
    }
  ]
}